[{"OBJECT_NAME":"STARLINK-5802","OBJECT_ID":"2023-065BB","EPOCH":"2026-03-09T22:00:01.999584","MEAN_MOTION":15.13897641,"ECCENTRICITY":0.00010484,"INCLINATION":43.0008,"RA_OF_ASC_NODE":221.339,"ARG_OF_PERICENTER":299.0727,"MEAN_ANOMALY":221.6596,"EPHEMERIS_TYPE":0,"CLASSIFICATION_TYPE":"U","NORAD_CAT_ID":56552,"ELEMENT_SET_NO":999,"REV_AT_EPOCH":572,"BSTAR":0.0067226998,"MEAN_MOTION_DOT":0.00125852,"MEAN_MOTION_DDOT":0},{"OBJECT_NAME":"XIWANG-5 02","OBJECT_ID":"2025-296A","EPOCH":"2026-03-09T21:42:05.145408","MEAN_MOTION":15.14679874,"ECCENTRICITY":0.00016159,"INCLINATION":41.3524,"RA_OF_ASC_NODE":326.5092,"ARG_OF_PERICENTER":203.554,"MEAN_ANOMALY":156.5206,"EPHEMERIS_TYPE":0,"CLASSIFICATION_TYPE":"U","NORAD_CAT_ID":67069,"ELEMENT_SET_NO":999,"REV_AT_EPOCH":1317,"BSTAR":0.00063449383,"MEAN_MOTION_DOT":0.00011786,"MEAN_MOTION_DDOT":0}]
